55177,ONEWEB-0716,2023,109.29,-1.0,+,87.9,Active,0,LEO,USA,UK,Unknown,Unknown,Unknown,1 55177U 23004AP  25063.45589159 -.00000014  00000+0 -69181-4 0  9991,2 55177  87.9018  99.4627 0002125  99.7427 260.3944 13.17647576105725,13.17647576,0.0002125,LEO
55178,ONEWEB-0717,2023,109.29,-1.0,+,87.9,Active,0,LEO,USA,UK,Unknown,Unknown,Unknown,1 55178U 23004AQ  25063.36307369 -.00000037  00000+0 -12727-3 0  9991,2 55178  87.9018  99.4416 0001133  94.7099 265.4162 13.17648189105763,13.17648189,0.0001133,LEO
55179,ONEWEB-0719,2023,109.29,-1.0,+,87.9,Active,0,LEO,USA,UK,Unknown,Unknown,Unknown,1 55179U 23004AR  25063.37319915  .00000090  00000+0  19808-3 0  9997,2 55179  87.9017  99.4243 0002056 102.1689 257.9673 13.17647674105711,13.17647674,0.0002056,LEO
55796,ONEWEB-0530,2023,109.03,-1.0,+,87.93,Active,0,LEO,USA,UK,Unknown,Unknown,Unknown,1 55796U 23029A   25063.39836090  .00000044  00000+0  76088-4 0  9992,2 55796  87.9323   7.9656 0001346  91.4347 268.6940 13.20771912 99131,13.20771912,0.0001346,LEO
55797,ONEWEB-0534,2023,109.03,-1.0,+,87.93,Active,0,LEO,USA,UK,Unknown,Unknown,Unknown,1 55797U 23029B   25063.38573636  .00000125  00000+0  27442-3 0  9995,2 55797  87.9322   7.9757 0001947  83.0796 277.0559 13.20773176 99139,13.20773176,0.0001947,LEO
55798,ONEWEB-0556,2023,109.03,-1.0,+,87.93,Active,0,LEO,USA,UK,Unknown,Unknown,Unknown,1 55798U 23029C   25063.84658555  .00000058  00000+0  11096-3 0  9994,2 55798  87.9323   7.8770 0001899 106.2252 253.9091 13.20770880 99881,13.2077088,0.0001899,LEO
55799,ONEWEB-0562,2023,109.03,-1.0,+,87.93,Active,0,LEO,USA,UK,Unknown,Unknown,Unknown,1 55799U 23029D   25063.37941945  .00000075  00000+0  15344-3 0  9990,2 55799  87.9323   7.9618 0001306 111.6752 248.4521 13.20771096 99137,13.20771096,0.0001306,LEO
55800,ONEWEB-0563,2023,109.03,-1.0,+,87.93,Active,0,LEO,USA,UK,Unknown,Unknown,Unknown,1 55800U 23029E   25063.37310912  .00000032  00000+0  46993-4 0  9995,2 55800  87.9323   7.9777 0002182  85.0641 275.0741 13.20771384 99129,13.20771384,0.0002182,LEO
